{
  "geo": [{
    "checked": false,
    "coords": [45.5747346, 8.9198984],
    "address": "Via Alberto da Giussano",
    "zip": "20010",
    "city": "Canegrate MI",
    "podcast": {
      "id": 1485
    }
  }, {
    "checked": false,
    "coords": [45.5738525, 8.9204629],
    "address": "Via Donato Bramante",
    "zip": "20010",
    "city": "Canegrate MI",
    "podcast": {
      "id": null
    }
  }, {
    "checked": false,
    "coords": [45.5736375, 8.9197766],
    "address": "Via Pietro Micca",
    "zip": "20010",
    "city": "Canegrate MI",
    "podcast": {
      "id": null
    }
  }, {
    "checked": false,
    "coords": [45.566770, 8.935054],
    "address": "Via Gabriele D\"Annunzio",
    "zip": "20010",
    "city": "Canegrate MI",
    "podcast": {
      "id": null
    }
  }, {
    "checked": false,
    "coords": [45.5662218, 8.9170461],
    "address": "Via Etna",
    "zip": "20010",
    "city": "Canegrate MI",
    "podcast": {
      "id": null
    }
  }, {
    "checked": false,
    "coords": [45.5662218, 8.9170461],
    "address": "Via Giuseppe Garibaldi",
    "zip": "20010",
    "city": "Canegrate MI",
    "podcast": {
      "id": null
    }
  }, {
    "checked": false,
    "coords": [45.5628023, 8.9155547],
    "address": "Via Magenta",
    "zip": "20010",
    "city": "Canegrate MI",
    "podcast": {
      "id": null
    }
  }, {
    "checked": false,
    "coords": [45.5633232, 8.9138673],
    "address": "Via Stromboli",
    "zip": "20010",
    "city": "Canegrate MI",
    "podcast": {
      "id": null
    }
  }, {
    "checked": false,
    "coords": [45.5636263, 8.9191559],
    "address": "Via Verona",
    "zip": "20010",
    "city": "Canegrate MI",
    "podcast": {
      "id": null
    }
  }, {
    "checked": false,
    "coords": [45.5636956, 8.9209966],
    "address": "Via Bologna",
    "zip": "20010",
    "city": "Canegrate MI",
    "podcast": {
      "id": null
    }
  }, {
    "checked": false,
    "coords": [45.5642676, 8.9192335],
    "address": "Via Vicenza",
    "zip": "20010",
    "city": "Canegrate MI",
    "podcast": {
      "id": null
    }
  }, {
    "checked": false,
    "coords": [45.5658692, 8.9296163],
    "address": "Via Fratelli Bandiera",
    "zip": "20010",
    "city": "Canegrate MI",
    "podcast": {
      "id": null
    }
  }, {
    "checked": false,
    "coords": [45.567329, 8.9338521],
    "address": "Via Adige",
    "zip": "20010",
    "city": "Canegrate MI",
    "podcast": {
      "id": null
    }
  }, {
    "checked": false,
    "coords": [45.5653605, 8.9308592],
    "address": "Via Tevere",
    "zip": "20010",
    "city": "Canegrate MI",
    "podcast": {
      "id": null
    }
  }, {
    "checked": false,
    "coords": [45.5649634, 8.9327487],
    "address": "Via Tagliamento",
    "zip": "20010",
    "city": "Canegrate MI",
    "podcast": {
      "id": null
    }
  }, {
    "checked": false,
    "coords": [45.5735853, 8.9342552],
    "address": "Via Enrico Toti",
    "zip": "20010",
    "city": "Canegrate MI",
    "podcast": {
      "id": null
    }
  }, {
    "checked": false,
    "coords": [45.5735853, 8.9342552],
    "address": "Via Antonio Vivaldi",
    "zip": "20010",
    "city": "Canegrate MI",
    "podcast": {
      "id": null
    }
  }, {
    "checked": false,
    "coords": [45.5740543, 8.9381484],
    "address": "Via Amilcare Ponchielli",
    "zip": "20010",
    "city": "Canegrate MI",
    "podcast": {
      "id": null
    }
  }, {
    "checked": false,
    "coords": [45.5720407, 8.9370789],
    "address": "Via Vincenzo Bellini",
    "zip": "20010",
    "city": "Canegrate MI",
    "podcast": {
      "id": null
    }
  }, {
    "checked": false,
    "coords": [45.570521, 8.935535],
    "address": "Via Torquato Tasso",
    "zip": "20010",
    "city": "Canegrate MI",
    "podcast": {
      "id": null
    }
  }, {
    "checked": false,
    "coords": [45.5749259, 8.933367],
    "address": "Via XXV Aprile",
    "zip": "20010",
    "city": "Canegrate MI",
    "podcast": {
      "id": null
    }
  }, {
    "checked": false,
    "coords": [45.572512, 8.9304119],
    "address": "Via dei Partigiani",
    "zip": "20010",
    "city": "Canegrate MI",
    "podcast": {
      "id": null
    }
  }, {
    "checked": false,
    "coords": [45.5631843, 8.9252958],
    "address": "Via Firenze",
    "zip": "20010",
    "city": "Canegrate MI",
    "podcast": {
      "id": null
    }
  }, {
    "checked": false,
    "coords": [45.5642352, 8.9265382],
    "address": "Via Sondrio",
    "zip": "20010",
    "city": "Canegrate MI",
    "podcast": {
      "id": null
    }
  }, {
    "checked": false,
    "coords": [45.5630299, 8.9268375],
    "address": "Via Lecco",
    "zip": "20010",
    "city": "Canegrate MI",
    "podcast": {
      "id": null
    }
  }, {
    "checked": false,
    "coords": [45.5671474, 8.9217718],
    "address": "Via Armando Diaz",
    "zip": "20010",
    "city": "Canegrate MI",
    "podcast": {
      "id": null
    }
  }, {
    "checked": false,
    "coords": [45.5680455, 8.9212533],
    "address": "Via Grigna",
    "zip": "20010",
    "city": "Canegrate MI",
    "podcast": {
      "id": null
    }
  }, {
    "checked": false,
    "coords": [45.5662218, 8.9170461],
    "address": "Via Giuseppe Garibaldi",
    "zip": "20010",
    "city": "Canegrate MI",
    "podcast": {
      "id": null
    }
  }, {
    "checked": false,
    "coords": [45.5739296, 8.9340186],
    "address": "Via Luigi Settembrini",
    "zip": "20010",
    "city": "Canegrate MI",
    "podcast": {
      "id": null
    }
  }, {
    "checked": false,
    "coords": [45.5704811, 8.9268031],
    "address": "Piazza Matteotti",
    "zip": "20010",
    "city": "Canegrate MI",
    "podcast": {
      "id": null
    }
  }]
}
